PLEIADES NEO 3          
1 48268U 21034A   26190.87652609  .00000022  00000+0  94220-5 0  9994
2 48268  97.8936 265.3166 0001321  93.2029 266.9334 14.81673152281016
PLEIADES NEO 4          
1 49070U 21073E   26190.84274874  .00001111  00000+0  14774-3 0  9994
2 49070  97.8934 265.2798 0001357  92.7337 267.4031 14.81673701264720
